CSS (TIANHE)            
1 48274U 21035A   23255.39833058  .00039947  00000+0  44119-3 0  9995
2 48274  41.4751 345.4584 0009729 354.5279   5.5452 15.62235611135466
